ZACUBE-1 (TSHEPISOSAT)  
1 39417U 13066B   25106.82273237  .00010067  00000+0  88530-3 0  9998
2 39417  97.7763  64.1614 0042973 229.8415 129.9040 14.96014576616879
GOMX-1                  
1 39430U 13066Q   25106.89419598  .00008921  00000+0  13871-2 0  9993
2 39430  97.6900 328.8406 0133209   4.9434 355.3051 14.67395411607359
CUBEBUG-2 (LO-74)       
1 39440U 13066AA  25106.80868660  .00010451  00000+0  10660-2 0  9997
2 39440  97.8464  51.7734 0062886 359.4733   0.6407 14.89359658613433
FUNCUBE-1 (AO-73)       
1 39444U 13066AE  25106.84787416  .00033080  00000+0  25182-2 0  9992
2 39444  97.7713  68.6164 0040382 206.4613 153.4550 15.01354125615529
UWE-3                   
1 39446U 13066AG  25106.84115671  .00019453  00000+0  18538-2 0  9997
2 39446  97.8199  58.0988 0052198 298.5849  61.0123 14.92364945613896
UNISAT-6                
1 40012U 14033C   25106.91321562  .00014227  00000+0  16442-2 0  9995
2 40012  97.7360 264.6337 0048482  32.6738 327.7460 14.84819925582833
DUCHIFAT-1              
1 40021U 14033M   25106.93391845  .00094159  00000+0  36361-2 0  9992
2 40021  98.0992 116.7099 0011401 134.0939 226.1237 15.25815970590139
QB50P1                  
1 40025U 14033R   25106.93377319  .00034970  00000+0  21778-2 0  9997
2 40025  98.0817  86.5942 0008648 228.5586 131.4899 15.09460101588544
LILACSAT-2              
1 40908U 15049K   25106.94222857  .00048609  00000+0  13184-2 0  9998
2 40908  97.5107 126.0357 0009175   6.4688 353.6673 15.37428610529983
FOX-1A (AO-85)          
1 40967U 15058D   25106.55827407  .00007230  00000+0  62410-3 0  9994
2 40967  64.7749 161.5232 0168363 212.7096 146.3504 14.87621412 50036
CAS-2T & KS-1Q          
1 41847U 16066G   25106.81943580  .00003461  00000+0  50134-3 0  9994
2 41847  98.4214 181.7443 0346206 341.3385  17.5364 14.43339327443264
ZHUHAI-1 02 (CAS-4B)    
1 42759U 17034B   25106.87470796  .00206591  00000+0  27885-2 0  9998
2 42759  43.0092 280.3371 0019949 276.3113  83.5477 15.56109048434213
ZHUHAI-1 01 (CAS-4A)    
1 42761U 17034D   25106.81578799  .00192837  00000+0  25277-2 0  9997
2 42761  43.0127 278.3198 0021328 280.4223  79.4236 15.56909005434219
RADFXSAT (FOX-1B)       
1 43017U 17073E   25106.57952751  .00016192  00000+0  84359-3 0  9998
2 43017  97.5329 338.7286 0175333 351.0587   8.7526 15.03665252401097
