[
  {
    "OBJECT_NAME": "ZACUBE-1 (TSHEPISOSAT)",
    "OBJECT_ID": "2013-066B",
    "EPOCH": "2025-04-16T19:44:44.076768",
    "MEAN_MOTION": 14.96014576,
    "ECCENTRICITY": 0.0042973,
    "INCLINATION": 97.7763,
    "RA_OF_ASC_NODE": 64.1614,
    "ARG_OF_PERICENTER": 229.8415,
    "MEAN_ANOMALY": 129.904,
    "EPHEMERIS_TYPE": 0,
    "CLASSIFICATION_TYPE": "U",
    "NORAD_CAT_ID": 39417,
    "ELEMENT_SET_NO": 999,
    "REV_AT_EPOCH": 61687,
    "BSTAR": 0.0008853,
    "MEAN_MOTION_DOT": 0.00010067,
    "MEAN_MOTION_DDOT": 0
  },
  {
    "OBJECT_NAME": "GOMX-1",
    "OBJECT_ID": "2013-066Q",
    "EPOCH": "2025-04-16T21:27:38.532672",
    "MEAN_MOTION": 14.67395411,
    "ECCENTRICITY": 0.0133209,
    "INCLINATION": 97.69,
    "RA_OF_ASC_NODE": 328.8406,
    "ARG_OF_PERICENTER": 4.9434,
    "MEAN_ANOMALY": 355.3051,
    "EPHEMERIS_TYPE": 0,
    "CLASSIFICATION_TYPE": "U",
    "NORAD_CAT_ID": 39430,
    "ELEMENT_SET_NO": 999,
    "REV_AT_EPOCH": 60735,
    "BSTAR": 0.0013871,
    "MEAN_MOTION_DOT": 8.921e-5,
    "MEAN_MOTION_DDOT": 0
  },
  {
    "OBJECT_NAME": "CUBEBUG-2 (LO-74)",
    "OBJECT_ID": "2013-066AA",
    "EPOCH": "2025-04-16T19:24:30.522240",
    "MEAN_MOTION": 14.89359658,
    "ECCENTRICITY": 0.0062886,
    "INCLINATION": 97.8464,
    "RA_OF_ASC_NODE": 51.7734,
    "ARG_OF_PERICENTER": 359.4733,
    "MEAN_ANOMALY": 0.6407,
    "EPHEMERIS_TYPE": 0,
    "CLASSIFICATION_TYPE": "U",
    "NORAD_CAT_ID": 39440,
    "ELEMENT_SET_NO": 999,
    "REV_AT_EPOCH": 61343,
    "BSTAR": 0.001066,
    "MEAN_MOTION_DOT": 0.00010451,
    "MEAN_MOTION_DDOT": 0
  },
  {
    "OBJECT_NAME": "FUNCUBE-1 (AO-73)",
    "OBJECT_ID": "2013-066AE",
    "EPOCH": "2025-04-16T20:20:56.327424",
    "MEAN_MOTION": 15.01354125,
    "ECCENTRICITY": 0.0040382,
    "INCLINATION": 97.7713,
    "RA_OF_ASC_NODE": 68.6164,
    "ARG_OF_PERICENTER": 206.4613,
    "MEAN_ANOMALY": 153.455,
    "EPHEMERIS_TYPE": 0,
    "CLASSIFICATION_TYPE": "U",
    "NORAD_CAT_ID": 39444,
    "ELEMENT_SET_NO": 999,
    "REV_AT_EPOCH": 61552,
    "BSTAR": 0.0025182,
    "MEAN_MOTION_DOT": 0.0003308,
    "MEAN_MOTION_DDOT": 0
  },
  {
    "OBJECT_NAME": "UWE-3",
    "OBJECT_ID": "2013-066AG",
    "EPOCH": "2025-04-16T20:11:15.939744",
    "MEAN_MOTION": 14.92364945,
    "ECCENTRICITY": 0.0052198,
    "INCLINATION": 97.8199,
    "RA_OF_ASC_NODE": 58.0988,
    "ARG_OF_PERICENTER": 298.5849,
    "MEAN_ANOMALY": 61.0123,
    "EPHEMERIS_TYPE": 0,
    "CLASSIFICATION_TYPE": "U",
    "NORAD_CAT_ID": 39446,
    "ELEMENT_SET_NO": 999,
    "REV_AT_EPOCH": 61389,
    "BSTAR": 0.0018538,
    "MEAN_MOTION_DOT": 0.00019453,
    "MEAN_MOTION_DDOT": 0
  },
  {
    "OBJECT_NAME": "UNISAT-6",
    "OBJECT_ID": "2014-033C",
    "EPOCH": "2025-04-16T21:55:01.829568",
    "MEAN_MOTION": 14.84819925,
    "ECCENTRICITY": 0.0048482,
    "INCLINATION": 97.736,
    "RA_OF_ASC_NODE": 264.6337,
    "ARG_OF_PERICENTER": 32.6738,
    "MEAN_ANOMALY": 327.746,
    "EPHEMERIS_TYPE": 0,
    "CLASSIFICATION_TYPE": "U",
    "NORAD_CAT_ID": 40012,
    "ELEMENT_SET_NO": 999,
    "REV_AT_EPOCH": 58283,
    "BSTAR": 0.0016442,
    "MEAN_MOTION_DOT": 0.00014227,
    "MEAN_MOTION_DDOT": 0
  },
  {
    "OBJECT_NAME": "DUCHIFAT-1",
    "OBJECT_ID": "2014-033M",
    "EPOCH": "2025-04-16T22:24:50.554080",
    "MEAN_MOTION": 15.2581597,
    "ECCENTRICITY": 0.0011401,
    "INCLINATION": 98.0992,
    "RA_OF_ASC_NODE": 116.7099,
    "ARG_OF_PERICENTER": 134.0939,
    "MEAN_ANOMALY": 226.1237,
    "EPHEMERIS_TYPE": 0,
    "CLASSIFICATION_TYPE": "U",
    "NORAD_CAT_ID": 40021,
    "ELEMENT_SET_NO": 999,
    "REV_AT_EPOCH": 59013,
    "BSTAR": 0.0036361,
    "MEAN_MOTION_DOT": 0.00094159,
    "MEAN_MOTION_DDOT": 0
  },
  {
    "OBJECT_NAME": "QB50P1",
    "OBJECT_ID": "2014-033R",
    "EPOCH": "2025-04-16T22:24:38.003616",
    "MEAN_MOTION": 15.09460101,
    "ECCENTRICITY": 0.0008648,
    "INCLINATION": 98.0817,
    "RA_OF_ASC_NODE": 86.5942,
    "ARG_OF_PERICENTER": 228.5586,
    "MEAN_ANOMALY": 131.4899,
    "EPHEMERIS_TYPE": 0,
    "CLASSIFICATION_TYPE": "U",
    "NORAD_CAT_ID": 40025,
    "ELEMENT_SET_NO": 999,
    "REV_AT_EPOCH": 58854,
    "BSTAR": 0.0021778,
    "MEAN_MOTION_DOT": 0.0003497,
    "MEAN_MOTION_DDOT": 0
  },
  {
    "OBJECT_NAME": "LILACSAT-2",
    "OBJECT_ID": "2015-049K",
    "EPOCH": "2025-04-16T22:36:48.548448",
    "MEAN_MOTION": 15.3742861,
    "ECCENTRICITY": 0.0009175,
    "INCLINATION": 97.5107,
    "RA_OF_ASC_NODE": 126.0357,
    "ARG_OF_PERICENTER": 6.4688,
    "MEAN_ANOMALY": 353.6673,
    "EPHEMERIS_TYPE": 0,
    "CLASSIFICATION_TYPE": "U",
    "NORAD_CAT_ID": 40908,
    "ELEMENT_SET_NO": 999,
    "REV_AT_EPOCH": 52998,
    "BSTAR": 0.0013184,
    "MEAN_MOTION_DOT": 0.00048609,
    "MEAN_MOTION_DDOT": 0
  },
  {
    "OBJECT_NAME": "FOX-1A (AO-85)",
    "OBJECT_ID": "2015-058D",
    "EPOCH": "2025-04-16T13:23:54.879648",
    "MEAN_MOTION": 14.87621412,
    "ECCENTRICITY": 0.0168363,
    "INCLINATION": 64.7749,
    "RA_OF_ASC_NODE": 161.5232,
    "ARG_OF_PERICENTER": 212.7096,
    "MEAN_ANOMALY": 146.3504,
    "EPHEMERIS_TYPE": 0,
    "CLASSIFICATION_TYPE": "U",
    "NORAD_CAT_ID": 40967,
    "ELEMENT_SET_NO": 999,
    "REV_AT_EPOCH": 5003,
    "BSTAR": 0.0006241,
    "MEAN_MOTION_DOT": 7.23e-5,
    "MEAN_MOTION_DDOT": 0
  },
  {
    "OBJECT_NAME": "CAS-2T & KS-1Q",
    "OBJECT_ID": "2016-066G",
    "EPOCH": "2025-04-16T19:39:59.253120",
    "MEAN_MOTION": 14.43339327,
    "ECCENTRICITY": 0.0346206,
    "INCLINATION": 98.4214,
    "RA_OF_ASC_NODE": 181.7443,
    "ARG_OF_PERICENTER": 341.3385,
    "MEAN_ANOMALY": 17.5364,
    "EPHEMERIS_TYPE": 0,
    "CLASSIFICATION_TYPE": "U",
    "NORAD_CAT_ID": 41847,
    "ELEMENT_SET_NO": 999,
    "REV_AT_EPOCH": 44326,
    "BSTAR": 0.00050134,
    "MEAN_MOTION_DOT": 3.461e-5,
    "MEAN_MOTION_DDOT": 0
  },
  {
    "OBJECT_NAME": "ZHUHAI-1 02 (CAS-4B)",
    "OBJECT_ID": "2017-034B",
    "EPOCH": "2025-04-16T20:59:34.767744",
    "MEAN_MOTION": 15.56109048,
    "ECCENTRICITY": 0.0019949,
    "INCLINATION": 43.0092,
    "RA_OF_ASC_NODE": 280.3371,
    "ARG_OF_PERICENTER": 276.3113,
    "MEAN_ANOMALY": 83.5477,
    "EPHEMERIS_TYPE": 0,
    "CLASSIFICATION_TYPE": "U",
    "NORAD_CAT_ID": 42759,
    "ELEMENT_SET_NO": 999,
    "REV_AT_EPOCH": 43421,
    "BSTAR": 0.0027885,
    "MEAN_MOTION_DOT": 0.00206591,
    "MEAN_MOTION_DDOT": 0
  },
  {
    "OBJECT_NAME": "ZHUHAI-1 01 (CAS-4A)",
    "OBJECT_ID": "2017-034D",
    "EPOCH": "2025-04-16T19:34:44.082336",
    "MEAN_MOTION": 15.56909005,
    "ECCENTRICITY": 0.0021328,
    "INCLINATION": 43.0127,
    "RA_OF_ASC_NODE": 278.3198,
    "ARG_OF_PERICENTER": 280.4223,
    "MEAN_ANOMALY": 79.4236,
    "EPHEMERIS_TYPE": 0,
    "CLASSIFICATION_TYPE": "U",
    "NORAD_CAT_ID": 42761,
    "ELEMENT_SET_NO": 999,
    "REV_AT_EPOCH": 43421,
    "BSTAR": 0.0025277,
    "MEAN_MOTION_DOT": 0.00192837,
    "MEAN_MOTION_DDOT": 0
  },
  {
    "OBJECT_NAME": "RADFXSAT (FOX-1B)",
    "OBJECT_ID": "2017-073E",
    "EPOCH": "2025-04-16T13:54:31.176864",
    "MEAN_MOTION": 15.03665252,
    "ECCENTRICITY": 0.0175333,
    "INCLINATION": 97.5329,
    "RA_OF_ASC_NODE": 338.7286,
    "ARG_OF_PERICENTER": 351.0587,
    "MEAN_ANOMALY": 8.7526,
    "EPHEMERIS_TYPE": 0,
    "CLASSIFICATION_TYPE": "U",
    "NORAD_CAT_ID": 43017,
    "ELEMENT_SET_NO": 999,
    "REV_AT_EPOCH": 40109,
    "BSTAR": 0.00084359,
    "MEAN_MOTION_DOT": 0.00016192,
    "MEAN_MOTION_DDOT": 0
  }
]
